{
    "links": {
        "self": "http://www.neowsapp.com/rest/v1/neo/3745829?api_key=iIulBulltgU6a56xZRHN4H3l9WmuAYTsLGpBGhQ2"
    },
    "id": "3745829",
    "neo_reference_id": "3745829",
    "name": "(2016 EG55)",
    "designation": "2016 EG55",
    "nasa_jpl_url": "http://ssd.jpl.nasa.gov/sbdb.cgi?sstr=3745829",
    "absolute_magnitude_h": 23.3,
    "estimated_diameter": {
        "kilometers": {
            "estimated_diameter_min": 0.058150704,
            "estimated_diameter_max": 0.130028927
        },
        "meters": {
            "estimated_diameter_min": 58.1507039646,
            "estimated_diameter_max": 130.0289270043
        },
        "miles": {
            "estimated_diameter_min": 0.0361331611,
            "estimated_diameter_max": 0.0807962044
        },
        "feet": {
            "estimated_diameter_min": 190.7831555951,
            "estimated_diameter_max": 426.6041048727
        }
    },
    "is_potentially_hazardous_asteroid": false,
    "close_approach_data": [
        {
            "close_approach_date": "2014-03-15",
            "close_approach_date_full": "2014-Mar-15 03:24",
            "epoch_date_close_approach": 1394853840000,
            "relative_velocity": {
                "kilometers_per_second": "22.862251669",
                "kilometers_per_hour": "82304.1060084821",
                "miles_per_hour": "51140.5707584371"
            },
            "miss_distance": {
                "astronomical": "0.395902028",
                "lunar": "154.005888892",
                "kilometers": "59226100.11748036",
                "miles": "36801392.109774568"
            },
            "orbiting_body": "Earth"
        },
        {
            "close_approach_date": "2015-10-13",
            "close_approach_date_full": "2015-Oct-13 18:19",
            "epoch_date_close_approach": 1444760340000,
            "relative_velocity": {
                "kilometers_per_second": "13.7031547999",
                "kilometers_per_hour": "49331.3572794694",
                "miles_per_hour": "30652.5869717903"
            },
            "miss_distance": {
                "astronomical": "0.4498135574",
                "lunar": "174.9774738286",
                "kilometers": "67291150.084162738",
                "miles": "41812781.7778442644"
            },
            "orbiting_body": "Earth"
        },
        {
            "close_approach_date": "2016-03-03",
            "close_approach_date_full": "2016-Mar-03 22:53",
            "epoch_date_close_approach": 1457045580000,
            "relative_velocity": {
                "kilometers_per_second": "16.8305463526",
                "kilometers_per_hour": "60589.966869229",
                "miles_per_hour": "37648.2491360495"
            },
            "miss_distance": {
                "astronomical": "0.1331799068",
                "lunar": "51.8069837452",
                "kilometers": "19923430.384078516",
                "miles": "12379845.5795988808"
            },
            "orbiting_body": "Earth"
        },
        {
            "close_approach_date": "2017-10-21",
            "close_approach_date_full": "2017-Oct-21 18:33",
            "epoch_date_close_approach": 1508610780000,
            "relative_velocity": {
                "kilometers_per_second": "15.7281281649",
                "kilometers_per_hour": "56621.2613936886",
                "miles_per_hour": "35182.249892095"
            },
            "miss_distance": {
                "astronomical": "0.4595279316",
                "lunar": "178.7563653924",
                "kilometers": "68744399.772865692",
                "miles": "42715789.2613908696"
            },
            "orbiting_body": "Earth"
        },
        {
            "close_approach_date": "2018-02-26",
            "close_approach_date_full": "2018-Feb-26 18:59",
            "epoch_date_close_approach": 1519671540000,
            "relative_velocity": {
                "kilometers_per_second": "14.2192197092",
                "kilometers_per_hour": "51189.1909529728",
                "miles_per_hour": "31806.972567418"
            },
            "miss_distance": {
                "astronomical": "0.2983599794",
                "lunar": "116.0620319866",
                "kilometers": "44634017.411483878",
                "miles": "27734292.3632703964"
            },
            "orbiting_body": "Earth"
        }
    ],
    "orbital_data": {
        "orbit_id": "8",
        "orbit_determination_date": "2017-04-06 08:27:44",
        "first_observation_date": "2016-03-06",
        "last_observation_date": "2016-03-28",
        "data_arc_in_days": 22,
        "observations_used": 22,
        "orbit_uncertainty": "7",
        "minimum_orbit_intersection": ".122085",
        "jupiter_tisserand_invariant": "4.240",
        "epoch_osculation": "2459000.5",
        "eccentricity": ".3693197460719264",
        "semi_major_axis": "1.559936303008828",
        "inclination": "27.33010683661436",
        "ascending_node_longitude": "168.2085115757993",
        "orbital_period": "711.6373349195151",
        "perihelion_distance": ".9838210236932279",
        "perihelion_argument": "300.7790681133662",
        "aphelion_distance": "2.136051582324428",
        "perihelion_time": "2458828.741846979708",
        "mean_anomaly": "86.88826745479582",
        "mean_motion": ".5058756508899513",
        "equinox": "J2000",
        "orbit_class": {
            "orbit_class_type": "APO",
            "orbit_class_description": "Near-Earth asteroid orbits which cross the Earth’s orbit similar to that of 1862 Apollo",
            "orbit_class_range": "a (semi-major axis) > 1.0 AU; q (perihelion) < 1.017 AU"
        }
    },
    "is_sentry_object": false
}